start=new Date('2022-05-02T00:00:00.000Z').valueOf();
sats=[{"MEAN_MOTION_DOT":"0.00002346","DECAY_DATE":null,"TLE_LINE1":"1 45671U 20035Q   22121.70562224  .00002346  00000-0  17640-3 0  9995","LAUNCH_DATE":"2020-06-04","SITE":"AFETR","PERIAPSIS":"546.113","TLE_LINE2":"2 45671  53.0542 267.2989 0001620  59.0211 301.0937 15.06393089106503","EPHEMERIS_TYPE":"0","COUNTRY_CODE":"US","OBJECT_NAME":"STARLINK-1454","MEAN_MOTION_DDOT":"0.0000000000000","INCLINATION":"53.0542","GP_ID":"202472206","OBJECT_ID":"2020-035Q","ECCENTRICITY":"0.00016200","REV_AT_EPOCH":"10650","MEAN_ANOMALY":"301.0937","OBJECT_TYPE":"PAYLOAD","CENTER_NAME":"EARTH","FILE":"3424759","REF_FRAME":"TEME","PERIOD":"95.593","ELEMENT_SET_NO":"999","NORAD_CAT_ID":"45671","EPOCH":"2022-05-01T16:56:05.761536","CLASSIFICATION_TYPE":"U","BSTAR":"0.00017640000000","RA_OF_ASC_NODE":"267.2989","TIME_SYSTEM":"UTC","ARG_OF_PERICENTER":"59.0211","RCS_SIZE":"LARGE","APOAPSIS":"548.357","SEMIMAJOR_AXIS":"6925.370","MEAN_ELEMENT_THEORY":"SGP4","MEAN_MOTION":"15.06393089"},{"EPHEMERIS_TYPE":"0","COUNTRY_CODE":"US","SITE":"AFETR","PERIAPSIS":"546.113","TLE_LINE2":"2 45672  53.0539 237.2638 0001657  65.0920 295.0241 15.06384670106935","LAUNCH_DATE":"2020-06-04","TLE_LINE1":"1 45672U 20035R   22121.71576863  .00000173  00000-0  30541-4 0  9993","DECAY_DATE":null,"MEAN_MOTION_DOT":"0.00000173","REF_FRAME":"TEME","FILE":"3424759","MEAN_ANOMALY":"295.0241","OBJECT_TYPE":"PAYLOAD","CENTER_NAME":"EARTH","ECCENTRICITY":"0.00016570","REV_AT_EPOCH":"10693","OBJECT_ID":"2020-035R","GP_ID":"202470963","INCLINATION":"53.0539","OBJECT_NAME":"STARLINK-1455","MEAN_MOTION_DDOT":"0.0000000000000","CLASSIFICATION_TYPE":"U","EPOCH":"2022-05-01T17:10:42.409632","NORAD_CAT_ID":"45672","PERIOD":"95.593","ELEMENT_SET_NO":"999","MEAN_ELEMENT_THEORY":"SGP4","MEAN_MOTION":"15.06384670","SEMIMAJOR_AXIS":"6925.396","RCS_SIZE":"LARGE","APOAPSIS":"548.408","ARG_OF_PERICENTER":"65.0920","TIME_SYSTEM":"UTC","BSTAR":"0.00003054100000","RA_OF_ASC_NODE":"237.2638"},{"REF_FRAME":"TEME","FILE":"3424759","CENTER_NAME":"EARTH","MEAN_ANOMALY":"300.7127","OBJECT_TYPE":"PAYLOAD","REV_AT_EPOCH":"10653","ECCENTRICITY":"0.00015950","OBJECT_ID":"2020-035S","GP_ID":"202470713","INCLINATION":"53.0545","MEAN_MOTION_DDOT":"0.0000000000000","OBJECT_NAME":"STARLINK-1456","EPHEMERIS_TYPE":"0","COUNTRY_CODE":"US","PERIAPSIS":"546.137","TLE_LINE2":"2 45673  53.0545 266.9274 0001595  59.4019 300.7127 15.06390821106533","SITE":"AFETR","LAUNCH_DATE":"2020-06-04","TLE_LINE1":"1 45673U 20035S   22121.78671999 -.00000163  00000-0  79761-5 0  9995","DECAY_DATE":null,"MEAN_MOTION_DOT":"-0.00000163","MEAN_MOTION":"15.06390821","MEAN_ELEMENT_THEORY":"SGP4","SEMIMAJOR_AXIS":"6925.377","APOAPSIS":"548.346","RCS_SIZE":"LARGE","TIME_SYSTEM":"UTC","ARG_OF_PERICENTER":"59.4019","RA_OF_ASC_NODE":"266.9274","BSTAR":"0.00000797610000","CLASSIFICATION_TYPE":"U","EPOCH":"2022-05-01T18:52:52.607136","NORAD_CAT_ID":"45673","ELEMENT_SET_NO":"999","PERIOD":"95.593"},{"FILE":"3424759","REF_FRAME":"TEME","REV_AT_EPOCH":"10650","ECCENTRICITY":"0.00014840","CENTER_NAME":"EARTH","OBJECT_TYPE":"PAYLOAD","MEAN_ANOMALY":"282.2728","GP_ID":"202471463","OBJECT_ID":"2020-035T","MEAN_MOTION_DDOT":"0.0000000000000","OBJECT_NAME":"STARLINK-1457","INCLINATION":"53.0543","PERIAPSIS":"546.230","TLE_LINE2":"2 45674  53.0543 266.9036 0001484  77.8428 282.2728 15.06385630106503","SITE":"AFETR","COUNTRY_CODE":"US","EPHEMERIS_TYPE":"0","LAUNCH_DATE":"2020-06-04","TLE_LINE1":"1 45674U 20035T   22121.79409209  .00000003  00000-0  19128-4 0  9992","DECAY_DATE":null,"MEAN_MOTION_DOT":"0.00000003","MEAN_MOTION":"15.06385630","MEAN_ELEMENT_THEORY":"SGP4","SEMIMAJOR_AXIS":"6925.393","TIME_SYSTEM":"UTC","ARG_OF_PERICENTER":"77.8428","APOAPSIS":"548.285","RCS_SIZE":"LARGE","RA_OF_ASC_NODE":"266.9036","BSTAR":"0.00001912800000","EPOCH":"2022-05-01T19:03:29.556576","CLASSIFICATION_TYPE":"U","ELEMENT_SET_NO":"999","PERIOD":"95.593","NORAD_CAT_ID":"45674"},{"MEAN_ANOMALY":"317.7766","OBJECT_TYPE":"PAYLOAD","CENTER_NAME":"EARTH","ECCENTRICITY":"0.00019900","REV_AT_EPOCH":"10649","REF_FRAME":"TEME","FILE":"3424759","INCLINATION":"53.0546","OBJECT_NAME":"STARLINK-1458","MEAN_MOTION_DDOT":"0.0000000000000","OBJECT_ID":"2020-035U","GP_ID":"202471706","LAUNCH_DATE":"2020-06-04","EPHEMERIS_TYPE":"0","COUNTRY_CODE":"US","SITE":"AFETR","PERIAPSIS":"545.884","TLE_LINE2":"2 45675  53.0546 266.9516 0001990  42.3376 317.7766 15.06384070106492","MEAN_MOTION_DOT":"-0.00000112","TLE_LINE1":"1 45675U 20035U   22121.78303354 -.00000112  00000-0  11417-4 0  9991","DECAY_DATE":null,"SEMIMAJOR_AXIS":"6925.397","MEAN_ELEMENT_THEORY":"SGP4","MEAN_MOTION":"15.06384070","BSTAR":"0.00001141700000","RA_OF_ASC_NODE":"266.9516","RCS_SIZE":"LARGE","APOAPSIS":"548.641","TIME_SYSTEM":"UTC","ARG_OF_PERICENTER":"42.3376","CLASSIFICATION_TYPE":"U","EPOCH":"2022-05-01T18:47:34.097856","NORAD_CAT_ID":"45675","PERIOD":"95.593","ELEMENT_SET_NO":"999"},{"DECAY_DATE":null,"TLE_LINE1":"1 45676U 20035V   22121.81988579  .00001780  00000-0  13840-3 0  9996","MEAN_MOTION_DOT":"0.00001780","PERIAPSIS":"546.008","TLE_LINE2":"2 45676  53.0553 266.7974 0001769  52.6404 307.4746 15.06393590106498","SITE":"AFETR","COUNTRY_CODE":"US","EPHEMERIS_TYPE":"0","LAUNCH_DATE":"2020-06-04","GP_ID":"202470463","OBJECT_ID":"2020-035V","MEAN_MOTION_DDOT":"0.0000000000000","OBJECT_NAME":"STARLINK-1460","INCLINATION":"53.0553","FILE":"3424759","REF_FRAME":"TEME","REV_AT_EPOCH":"10649","ECCENTRICITY":"0.00017690","CENTER_NAME":"EARTH","OBJECT_TYPE":"PAYLOAD","MEAN_ANOMALY":"307.4746","ELEMENT_SET_NO":"999","PERIOD":"95.593","NORAD_CAT_ID":"45676","EPOCH":"2022-05-01T19:40:38.132256","CLASSIFICATION_TYPE":"U","ARG_OF_PERICENTER":"52.6404","TIME_SYSTEM":"UTC","APOAPSIS":"548.458","RCS_SIZE":"LARGE","RA_OF_ASC_NODE":"266.7974","BSTAR":"0.00013840000000","MEAN_MOTION":"15.06393590","MEAN_ELEMENT_THEORY":"SGP4","SEMIMAJOR_AXIS":"6925.368"},{"SEMIMAJOR_AXIS":"6925.383","MEAN_ELEMENT_THEORY":"SGP4","MEAN_MOTION":"15.06388785","BSTAR":"0.00027437000000","RA_OF_ASC_NODE":"267.3352","RCS_SIZE":"LARGE","APOAPSIS":"548.489","ARG_OF_PERICENTER":"53.1030","TIME_SYSTEM":"UTC","CLASSIFICATION_TYPE":"U","EPOCH":"2022-05-01T16:45:29.475648","NORAD_CAT_ID":"45677","PERIOD":"95.593","ELEMENT_SET_NO":"999","MEAN_ANOMALY":"307.0123","OBJECT_TYPE":"PAYLOAD","CENTER_NAME":"EARTH","ECCENTRICITY":"0.00017920","REV_AT_EPOCH":"10651","REF_FRAME":"TEME","FILE":"3424759","INCLINATION":"53.0532","OBJECT_NAME":"STARLINK-1392","MEAN_MOTION_DDOT":"0.0000000000000","OBJECT_ID":"2020-035W","GP_ID":"202471214","LAUNCH_DATE":"2020-06-04","EPHEMERIS_TYPE":"0","COUNTRY_CODE":"US","SITE":"AFETR","TLE_LINE2":"2 45677  53.0532 267.3352 0001792  53.1030 307.0123 15.06388785106518","PERIAPSIS":"546.007","MEAN_MOTION_DOT":"0.00003806","TLE_LINE1":"1 45677U 20035W   22121.69825782  .00003806  00000-0  27437-3 0  9997","DECAY_DATE":null},{"BSTAR":"0.00007586000000","RA_OF_ASC_NODE":"257.3523","RCS_SIZE":"LARGE","APOAPSIS":"548.466","TIME_SYSTEM":"UTC","ARG_OF_PERICENTER":"48.3468","SEMIMAJOR_AXIS":"6925.387","MEAN_ELEMENT_THEORY":"SGP4","MEAN_MOTION":"15.06387558","NORAD_CAT_ID":"45678","PERIOD":"95.593","ELEMENT_SET_NO":"999","CLASSIFICATION_TYPE":"U","EPOCH":"2022-05-01T16:36:12.383136","INCLINATION":"53.0536","OBJECT_NAME":"STARLINK-1393","MEAN_MOTION_DDOT":"0.0000000000000","OBJECT_ID":"2020-035X","GP_ID":"202471964","OBJECT_TYPE":"PAYLOAD","MEAN_ANOMALY":"311.7671","CENTER_NAME":"EARTH","ECCENTRICITY":"0.00017540","REV_AT_EPOCH":"10663","REF_FRAME":"TEME","FILE":"3424759","MEAN_MOTION_DOT":"0.00000848","DECAY_DATE":null,"TLE_LINE1":"1 45678U 20035X   22121.69180999  .00000848  00000-0  75860-4 0  9999","LAUNCH_DATE":"2020-06-04","COUNTRY_CODE":"US","EPHEMERIS_TYPE":"0","SITE":"AFETR","TLE_LINE2":"2 45678  53.0536 257.3523 0001754  48.3468 311.7671 15.06387558106631","PERIAPSIS":"546.037"},{"OBJECT_ID":"2020-035Y","GP_ID":"202472207","INCLINATION":"53.0550","OBJECT_NAME":"STARLINK-1394","MEAN_MOTION_DDOT":"0.0000000000000","REF_FRAME":"TEME","FILE":"3424759","OBJECT_TYPE":"PAYLOAD","MEAN_ANOMALY":"288.8596","CENTER_NAME":"EARTH","ECCENTRICITY":"0.00014940","REV_AT_EPOCH":"10666","TLE_LINE1":"1 45679U 20035Y   22121.76183695 -.00000431  00000-0 -10059-4 0  9993","DECAY_DATE":null,"MEAN_MOTION_DOT":"-0.00000431","EPHEMERIS_TYPE":"0","COUNTRY_CODE":"US","SITE":"AFETR","TLE_LINE2":"2 45679  53.0550 257.0622 0001494  71.2555 288.8596 15.06387784106662","PERIAPSIS":"546.216","LAUNCH_DATE":"2020-06-04","RCS_SIZE":"LARGE","APOAPSIS":"548.286","TIME_SYSTEM":"UTC","ARG_OF_PERICENTER":"71.2555","BSTAR":"-0.00001005900000","RA_OF_ASC_NODE":"257.0622","MEAN_ELEMENT_THEORY":"SGP4","MEAN_MOTION":"15.06387784","SEMIMAJOR_AXIS":"6925.386","NORAD_CAT_ID":"45679","PERIOD":"95.593","ELEMENT_SET_NO":"999","CLASSIFICATION_TYPE":"U","EPOCH":"2022-05-01T18:17:02.712480"},{"MEAN_MOTION":"15.06392563","MEAN_ELEMENT_THEORY":"SGP4","SEMIMAJOR_AXIS":"6925.371","APOAPSIS":"548.437","RCS_SIZE":"LARGE","ARG_OF_PERICENTER":"59.2702","TIME_SYSTEM":"UTC","RA_OF_ASC_NODE":"257.0267","BSTAR":"0.00005089100000","CLASSIFICATION_TYPE":"U","EPOCH":"2022-05-01T18:27:39.089088","NORAD_CAT_ID":"45680","ELEMENT_SET_NO":"999","PERIOD":"95.593","REF_FRAME":"TEME","FILE":"3424759","CENTER_NAME":"EARTH","OBJECT_TYPE":"PAYLOAD","MEAN_ANOMALY":"300.8457","REV_AT_EPOCH":"10665","ECCENTRICITY":"0.00017330","OBJECT_ID":"2020-035Z","GP_ID":"202470964","INCLINATION":"53.0545","MEAN_MOTION_DDOT":"0.0000000000000","OBJECT_NAME":"STARLINK-1395","COUNTRY_CODE":"US","EPHEMERIS_TYPE":"0","TLE_LINE2":"2 45680  53.0545 257.0267 0001733  59.2702 300.8457 15.06392563106650","PERIAPSIS":"546.036","SITE":"AFETR","LAUNCH_DATE":"2020-06-04","DECAY_DATE":null,"TLE_LINE1":"1 45680U 20035Z   22121.76920242  .00000476  00000-0  50891-4 0  9997","MEAN_MOTION_DOT":"0.00000476"}];
